NORAD_CAT_ID,OBJECT_NAME,OBJECT_TYPE,EPOCH,MEAN_MOTION,ECCENTRICITY,INCLINATION,RA_OF_ASC_NODE,ARG_OF_PERICENTER,MEAN_ANOMALY,BSTAR,MEAN_MOTION_DOT,MEAN_MOTION_DDOT,TLE_LINE0,TLE_LINE1,TLE_LINE2,SEMIMAJOR_AXIS,PERIOD,APOGEE,PERIGEE,DECAYED
55922.0,STARLINK-5863,PAYLOAD,2024-07-12 22:48:09,14.98330547,0.0003137,69.9999,29.195,271.2011,88.8788,4.5081e-05,4.45e-06,0.0,0 STARLINK-5863,1 55922U 23037J   24194.95010938  .00000445  00000-0  45081-4 0  9998,2 55922  69.9999  29.1950 0003137 271.2011  88.8788 14.98330547 72909,6950.191,96.107,574.236,569.876,0.0
55922.0,STARLINK-5863,PAYLOAD,2024-07-13 14:49:30,14.98321946,0.0002983,70.0,27.5112,269.4465,90.6353,0.00022002,2.533e-05,0.0,0 STARLINK-5863,1 55922U 23037J   24195.61770937  .00002533  00000-0  22002-3 0  9991,2 55922  70.0000  27.5112 0002983 269.4465  90.6353 14.98321946 73001,6950.218,96.108,574.156,570.01,0.0
55922.0,STARLINK-5863,PAYLOAD,2024-07-13 22:50:10,14.98331655,0.0002945,70.0002,26.6696,267.5144,92.5678,0.00016506,1.877e-05,0.0,0 STARLINK-5863,1 55922U 23037J   24195.95150590  .00001877  00000-0  16506-3 0  9997,2 55922  70.0002  26.6696 0002945 267.5144  92.5678 14.98331655 73055,6950.188,96.107,574.1,570.006,0.0
55922.0,STARLINK-5863,PAYLOAD,2024-07-14 14:51:30,14.98331033,0.0003114,70.0002,24.9862,271.9685,88.1118,9.4694e-05,1.037e-05,0.0,0 STARLINK-5863,1 55922U 23037J   24196.61910654  .00001037  00000-0  94694-4 0  9999,2 55922  70.0002  24.9862 0003114 271.9685  88.1118 14.98331033 73150,6950.19,96.107,574.219,569.89,0.0
55922.0,STARLINK-5863,PAYLOAD,2024-07-14 21:16:02,14.9833614,0.0003111,70.0002,24.3131,271.909,88.1713,0.00013177,1.48e-05,0.0,0 STARLINK-5863,1 55922U 23037J   24196.88614224  .00001480  00000-0  13177-3 0  9990,2 55922  70.0002  24.3131 0003111 271.9090  88.1713 14.98336140 73199,6950.174,96.107,574.201,569.877,0.0
55922.0,STARLINK-5863,PAYLOAD,2024-07-15 05:16:43,14.98332978,0.0003082,70.0004,23.4714,272.0221,88.0585,7.6693e-05,8.22e-06,0.0,0 STARLINK-5863,1 55922U 23037J   24197.21994493  .00000822  00000-0  76693-4 0  9999,2 55922  70.0004  23.4714 0003082 272.0221  88.0585 14.98332978 73587,6950.184,96.107,574.191,569.907,0.0
55922.0,STARLINK-5863,PAYLOAD,2024-07-15 14:53:31,14.98331447,0.000301,70.0007,22.4616,271.9125,88.1689,-4.7059e-06,-1.49e-06,0.0,0 STARLINK-5863,1 55922U 23037J   24197.62050774 -.00000149  00000-0 -47059-5 0  9998,2 55922  70.0007  22.4616 0003010 271.9125  88.1689 14.98331447 73308,6950.188,96.107,574.145,569.961,0.0
55922.0,STARLINK-5863,PAYLOAD,2024-07-15 21:18:03,14.98328233,0.0002779,70.0012,21.7896,263.4007,96.6836,0.00024954,2.886e-05,0.0,0 STARLINK-5863,1 55922U 23037J   24197.88754253  .00002886  00000-0  24954-3 0  9994,2 55922  70.0012  21.7896 0002779 263.4007  96.6836 14.98328233 73343,6950.198,96.107,573.995,570.132,0.0
55922.0,STARLINK-5863,PAYLOAD,2024-07-16 05:18:43,14.98338893,0.0002828,70.0014,20.948,267.5386,92.5449,-0.00011208,-1.43e-05,0.0,0 STARLINK-5863,1 55922U 23037J   24198.22134240 -.00001430  00000-0 -11208-3 0  9995,2 55922  70.0014  20.9480 0002828 267.5386  92.5449 14.98338893 73736,6950.165,96.106,573.996,570.065,0.0
55922.0,STARLINK-5863,PAYLOAD,2024-07-16 14:55:32,14.98329655,0.0002792,70.0016,19.9382,267.0175,93.0665,3.4152e-05,3.15e-06,0.0,0 STARLINK-5863,1 55922U 23037J   24198.62190451  .00000315  00000-0  34152-4 0  9998,2 55922  70.0016  19.9382 0002792 267.0175  93.0665 14.98329655 73459,6950.194,96.107,573.999,570.118,0.0
55922.0,STARLINK-5863,PAYLOAD,2024-07-16 21:20:04,14.98331691,0.0002825,70.0014,19.2654,265.2928,94.7909,2.9337e-06,-5.8e-07,0.0,0 STARLINK-5863,1 55922U 23037J   24198.88894383 -.00000058  00000-0  29337-5 0  9996,2 55922  70.0014  19.2654 0002825 265.2928  94.7909 14.98331691 73491,6950.188,96.107,574.016,570.089,0.0
55922.0,STARLINK-5863,PAYLOAD,2024-07-17 05:20:45,14.98330527,0.0002867,70.0014,18.4236,268.6036,91.4794,-1.3249e-05,-2.51e-06,0.0,0 STARLINK-5863,1 55922U 23037J   24199.22274478 -.00000251  00000-0 -13249-4 0  9992,2 55922  70.0014  18.4236 0002867 268.6036  91.4794 14.98330527 73887,6950.191,96.107,574.049,570.064,0.0
55922.0,STARLINK-5863,PAYLOAD,2024-07-17 14:57:34,14.9832349,0.0003041,70.0015,17.414,266.8802,93.2009,-1.2041e-05,-2.37e-06,0.0,0 STARLINK-5863,1 55922U 23037J   24199.62331074 -.00000237  00000-0 -12041-4 0  9995,2 55922  70.0015  17.4140 0003041 266.8802  93.2009 14.98323490 73607,6950.213,96.107,574.192,569.964,0.0
55922.0,STARLINK-5863,PAYLOAD,2024-07-17 21:22:05,14.98330358,0.0002968,70.001,16.7392,263.4041,96.6781,-2.7114e-05,-4.16e-06,0.0,0 STARLINK-5863,1 55922U 23037J   24199.89034675 -.00000416  00000-0 -27114-4 0  9997,2 55922  70.0010  16.7392 0002968 263.4041  96.6781 14.98330358 73647,6950.192,96.107,574.12,569.994,0.0
55922.0,STARLINK-5863,PAYLOAD,2024-07-18 13:23:26,14.98325877,0.0003106,70.0007,15.0555,270.4681,89.6123,8.0923e-05,8.73e-06,0.0,0 STARLINK-5863,1 55922U 23037J   24200.55794856  .00000873  00000-0  80923-4 0  9999,2 55922  70.0007  15.0555 0003106 270.4681  89.6123 14.98325877 73742,6950.206,96.107,574.229,569.912,0.0
55922.0,STARLINK-5863,PAYLOAD,2024-07-18 21:24:06,14.98334067,0.0003239,70.0005,14.2132,271.5041,88.5747,0.00010169,1.121e-05,0.0,0 STARLINK-5863,1 55922U 23037J   24200.89174355  .00001121  00000-0  10169-3 0  9993,2 55922  70.0005  14.2132 0003239 271.5041  88.5747 14.98334067 73797,6950.18,96.107,574.296,569.794,0.0
55922.0,STARLINK-5863,PAYLOAD,2024-07-19 13:25:27,14.98328881,0.0003068,70.0006,12.5293,268.6084,91.4724,0.00018324,2.094e-05,0.0,0 STARLINK-5863,1 55922U 23037J   24201.55934526  .00002094  00000-0  18324-3 0  9992,2 55922  70.0006  12.5293 0003068 268.6084  91.4724 14.98328881 74236,6950.196,96.107,574.194,569.929,0.0
55922.0,STARLINK-5863,PAYLOAD,2024-07-19 21:26:07,14.98337338,0.0003151,70.0006,11.6885,269.5886,90.4912,0.00019212,2.201e-05,0.0,0 STARLINK-5863,1 55922U 23037J   24201.89314087  .00002201  00000-0  19212-3 0  9990,2 55922  70.0006  11.6885 0003151 269.5886  90.4912 14.98337338 73948,6950.17,96.107,574.225,569.845,0.0
55922.0,STARLINK-5863,PAYLOAD,2024-07-20 13:27:28,14.98329489,0.0002921,70.001,10.0052,270.9799,89.1025,8.3272e-06,6e-08,0.0,0 STARLINK-5863,1 55922U 23037J   24202.56075081  .00000006  00000-0  83272-5 0  9993,2 55922  70.0010  10.0052 0002921 270.9799  89.1025 14.98329489 74382,6950.194,96.107,574.09,570.029,0.0
55922.0,STARLINK-5863,PAYLOAD,2024-07-20 21:28:09,14.98316113,0.0002319,70.0022,9.1651,261.0889,99.0008,0.00046736,5.486e-05,0.0,0 STARLINK-5863,1 55922U 23037J   24202.89455171  .00005486  00000-0  46736-3 0  9990,2 55922  70.0022   9.1651 0002319 261.0889  99.0008 14.98316113 74090,6950.236,96.108,573.713,570.489,0.0
55922.0,STARLINK-5863,PAYLOAD,2024-07-21 03:52:40,14.98358056,0.0002817,70.0024,8.4925,264.3734,95.7104,-0.00045676,-5.543e-05,0.0,0 STARLINK-5863,1 55922U 23037J   24203.16157670 -.00005543  00000-0 -45676-3 0  9992,2 55922  70.0024   8.4925 0002817 264.3734  95.7104 14.98358056 74470,6950.106,96.105,573.929,570.013,0.0
55922.0,STARLINK-5863,PAYLOAD,2024-07-21 13:29:29,14.98330896,0.0002953,70.0019,7.4818,268.4359,91.6462,9.1914e-05,1.004e-05,0.0,0 STARLINK-5863,1 55922U 23037J   24203.56214592  .00001004  00000-0  91914-4 0  9996,2 55922  70.0019   7.4818 0002953 268.4359  91.6462 14.98330896 74534,6950.19,96.107,574.108,570.003,0.0
55922.0,STARLINK-5863,PAYLOAD,2024-07-21 15:05:37,14.98327306,0.0003079,70.0017,7.3134,267.6294,92.4512,0.00011594,1.291e-05,0.0,0 STARLINK-5863,1 55922U 23037J   24203.62890764  .00001291  00000-0  11594-3 0  9997,2 55922  70.0017   7.3134 0003079 267.6294  92.4512 14.98327306 74202,6950.201,96.107,574.206,569.926,0.0
55922.0,STARLINK-5863,PAYLOAD,2024-07-21 21:30:09,14.98334307,0.0003238,70.0017,6.6401,266.4621,93.6168,2.9744e-05,2.62e-06,0.0,0 STARLINK-5863,1 55922U 23037J   24203.89594430  .00000262  00000-0  29744-4 0  9991,2 55922  70.0017   6.6401 0003238 266.4621  93.6168 14.98334307 74242,6950.18,96.107,574.295,569.794,0.0
55922.0,STARLINK-5863,PAYLOAD,2024-07-22 10:19:14,14.98325626,0.0002864,70.0019,5.2936,261.8574,98.2261,0.00019044,2.18e-05,0.0,0 STARLINK-5863,1 55922U 23037J   24204.43002570  .00002180  00000-0  19044-3 0  9993,2 55922  70.0019   5.2936 0002864 261.8574  98.2261 14.98325626 74320,6950.206,96.107,574.062,570.081,0.0
55922.0,STARLINK-5863,PAYLOAD,2024-07-23 19:58:03,14.98331536,0.0002969,70.0012,1.7582,267.388,92.694,8.2993e-05,8.97e-06,0.0,0 STARLINK-5863,1 55922U 23037J   24205.83198586  .00000897  00000-0  82993-4 0  9998,2 55922  70.0012   1.7582 0002969 267.3880  92.6940 14.98331536 74877,6950.188,96.107,574.117,569.99,0.0
55922.0,STARLINK-5863,PAYLOAD,2024-07-24 13:35:31,14.98337725,0.0002933,69.9994,359.9039,264.2506,95.8318,0.00015006,1.698e-05,0.0,0 STARLINK-5863,1 55922U 23037J   24206.56633921  .00001698  00000-0  15006-3 0  9996,2 55922  69.9994 359.9039 0002933 264.2506  95.8318 14.98337725 74645,6950.169,96.107,574.072,569.996,0.0
55922.0,STARLINK-5863,PAYLOAD,2024-07-24 20:00:03,14.98342054,0.0002909,70.0004,359.231,263.5328,96.55,0.00019136,2.192e-05,0.0,0 STARLINK-5863,1 55922U 23037J   24206.83337449  .00002192  00000-0  19136-3 0  9990,2 55922  70.0004 359.2310 0002909 263.5328  96.5500 14.98342054 75027,6950.156,96.106,574.042,569.999,0.0
55922.0,STARLINK-5863,PAYLOAD,2024-07-25 10:25:16,14.98332856,0.0002715,69.9954,357.7105,242.1551,117.9333,0.00010423,1.151e-05,0.0,0 STARLINK-5863,1 55922U 23037J   24207.43422005  .00001151  00000-0  10423-3 0  9994,2 55922  69.9954 357.7105 0002715 242.1551 117.9333 14.98332856 75110,6950.184,96.107,573.936,570.162,0.0
55922.0,STARLINK-5863,PAYLOAD,2024-07-26 10:27:17,14.98335298,0.0002951,69.9998,355.1922,266.2467,93.8355,-1.3506e-05,-2.54e-06,0.0,0 STARLINK-5863,1 55922U 23037J   24208.43562162 -.00000254  00000-0 -13506-4 0  9995,2 55922  69.9998 355.1922 0002951 266.2467  93.8355 14.98335298 75267,6950.177,96.107,574.093,569.991,0.0
